0 FENGYUN 1C DEB
1 37036U 99025EDU 13280.90218569  .00000007  00000-0  32839-4 0  1716
2 37036 099.1445 329.7553 0127085 181.4157 178.6694 13.99858348305554
0 FENGYUN 1C DEB
1 37036U 99025EDU 13284.33302294  .00000028  00000-0  46417-4 0  1727
2 37036 099.1429 333.1788 0126284 172.1846 188.1377 13.99859314306039
0 FENGYUN 1C DEB
1 37036U 99025EDU 13286.97762233  .00000078  00000-0  77869-4 0  1733
2 37036 099.1418 335.8241 0128752 164.8408 195.6939 13.99860753306401
0 FENGYUN 1C DEB
1 37036U 99025EDU 13290.90877412  .00000116  00000-0  10149-3 0  1748
2 37036 099.1420 339.7519 0128992 154.1414 206.6470 13.99862790306956
0 FENGYUN 1C DEB
1 37036U 99025EDU 13293.91073627  .00000168  00000-0  13441-3 0  1754
2 37036 099.1408 342.7489 0128765 145.9095 215.0574 13.99865143307374
